OBJECT_NAME,OBJECT_ID,EPOCH,MEAN_MOTION,ECCENTRICITY,INCLINATION,RA_OF_ASC_NODE,ARG_OF_PERICENTER,MEAN_ANOMALY,EPHEMERIS_TYPE,CLASSIFICATION_TYPE,NORAD_CAT_ID,ELEMENT_SET_NO,REV_AT_EPOCH,BSTAR,MEAN_MOTION_DOT,MEAN_MOTION_DDOT
HAIYANG-2D,2021-043A,2026-06-09T06:25:34.760352,13.83375639,.00113893,65.9999,324.4168,270.1415,89.8349,0,U,48621,999,25545,.55296765E-4,-.2E-6,0
2021-050D,2021-050D,2026-06-09T06:08:24.270144,15.23252769,.00040136,97.3334,236.4720,301.7149,58.3697,0,U,48843,999,27775,.2186698E-3,.5112E-4,0
TYVAK-0173,2021-059P,2026-06-08T18:10:15.228480,14.81864455,.00107615,96.0086,238.2092,64.4941,295.7389,0,U,48892,999,26699,.24621327E-3,.1917E-4,0
MANDRAKE 2 ABLE,2021-059AE,2026-06-09T06:11:30.086304,15.54668989,.00051346,97.7042,349.4398,35.0683,325.0907,0,U,48907,999,27589,.30469796E-3,.20107E-3,0
MANDRAKE 2 BAKER,2021-059AF,2026-06-09T02:01:22.518624,15.59147610,.00036103,97.7013,352.0688,37.4524,322.6983,0,U,48908,999,27603,.29239274E-3,.22787E-3,0
PACE-1,2021-059AG,2026-06-09T02:33:36.564480,15.78483190,.00008742,97.6783,357.3448,328.0891,32.0321,0,U,48909,999,27652,.44597241E-3,.77436E-3,0
YAM-3,2021-059AN,2026-06-09T05:57:06.933024,15.48378015,.00057151,97.6996,346.6860,37.4840,322.6807,0,U,48915,999,27576,.20914692E-3,.10982E-3,0
FARADAY_PHOENIX,2021-059AX,2026-06-09T02:18:45.345888,15.76410096,.00025293,97.6836,357.2368,346.2462,13.8734,0,U,48924,999,27638,.70933425E-3,.11294E-2,0
DEMO8 (TENZING),2021-059CA,2026-06-09T06:15:54.383040,15.54693056,.00069375,97.7035,353.0790,25.0476,335.1112,0,U,48951,999,27607,.28699693E-3,.18955E-3,0
NAPA-2,2021-059CN,2026-06-09T05:49:56.617824,15.95777302,.00026691,97.6730,358.3052,251.6260,108.4724,0,U,48963,999,27654,.72515668E-3,.290503E-2,.35483944E-4
FENGYUN 3E,2021-062A,2026-06-09T07:25:31.993248,14.19903004,.00027876,98.7498,163.8054,98.4957,261.6536,0,U,49008,999,25546,-.56186155E-4,-.163E-5,0
ISS (NAUKA),2021-066A,2026-06-09T04:35:05.112096,15.49678250,.00068905,51.6332,339.6717,149.5560,210.5830,0,U,49044,999,57035,.12923528E-3,.6847E-4,0
STARLINK-3100,2021-082Q,2026-06-09T02:18:00.532800,14.98334786,.00028413,70.0008,63.9807,272.6999,87.3835,0,U,49144,999,25967,.23618907E-4,.189E-5,0
CUTE,2021-088D,2026-06-09T04:55:02.074368,15.90636354,.00080794,97.4195,258.7399,246.7432,113.2991,0,U,49263,999,26128,.42596814E-3,.130491E-2,.8375438E-5
2021-091B,2021-091B,2026-06-09T06:49:34.012416,15.18511011,.00150194,97.4479,347.9800,70.0356,290.2494,0,U,49316,999,25778,.73693045E-4,.1456E-4,0
SDGSAT 1,2021-100A,2026-06-09T06:21:14.632416,15.19890529,.00070833,97.2639,207.5085,332.0725,28.0130,0,U,49387,999,25471,.15775907E-3,.3323E-4,0
TEIKYOSAT-4 (OORURI),2021-102B,2026-06-09T00:48:03.096288,15.09479159,.00110662,97.3672,189.8336,327.9148,32.1407,0,U,49396,999,25149,.13498817E-3,.2103E-4,0
Z-SAT,2021-102E,2026-06-09T06:56:11.411808,15.18208324,.00148118,97.3334,195.8520,275.7893,84.1652,0,U,49399,999,25224,.22448381E-3,.4537E-4,0
HIBARI,2021-102F,2026-06-09T02:25:16.462272,15.31566818,.00105473,97.3243,206.0970,221.4141,138.6302,0,U,49400,999,25295,.28437074E-3,.8606E-4,0
KOSEN-1,2021-102H,2026-06-09T01:55:35.623488,15.26721904,.00124326,97.3193,202.3955,230.9756,129.0377,0,U,49402,999,25278,.2376113E-3,.6184E-4,0
GLOBAL-14,2021-106A,2026-06-08T18:37:27.161184,15.50184743,.00170861,42.0063,341.0542,321.6139,38.3489,0,U,49469,999,25682,.49425997E-3,.28567E-3,0
GAOFEN-3 02,2021-109A,2026-06-09T06:41:09.390624,14.42216164,.00034222,98.4093,168.4878,35.3966,324.7450,0,U,49495,999,23917,.21440388E-4,.27E-6,0
GLOBAL-12,2021-115BA,2026-06-09T06:55:12.845568,15.53087245,.00034641,53.1947,82.5065,52.9948,307.1380,0,U,49772,999,25467,.44847526E-3,.28179E-3,0
GLOBAL-13,2021-115BB,2026-06-09T02:28:21.331488,15.45724588,.0004181,53.1969,93.0090,91.4086,268.7401,0,U,49773,999,25451,.38235845E-3,.18392E-3,0
GLOBAL-17,2021-120A,2026-06-09T02:37:30.240192,15.51823851,.00143637,41.9940,97.4128,203.9461,156.0717,0,U,49949,999,25364,.37983939E-3,.23159E-3,0
GLOBAL-16,2021-120B,2026-06-09T02:41:22.255296,15.49786682,.00121478,41.9946,100.9788,196.2575,163.7880,0,U,49950,999,25359,.37142955E-3,.21004E-3,0
XW-3 (CAS-9),2021-131B,2026-06-09T06:42:41.103360,14.41350793,.00052567,98.4971,252.7122,115.0760,245.0975,0,U,50466,999,23397,.1764741E-3,.527E-5,0
ION SCV-004,2022-002K,2026-06-09T06:11:18.433536,15.30373243,.00080232,97.2840,218.0657,34.4963,325.6797,0,U,50993,999,24408,.15900975E-3,.4599E-4,0
ETV-A1,2022-002CE,2026-06-09T05:16:04.289376,15.40515858,.00053927,97.2881,226.5485,31.7967,328.3604,0,U,51060,999,24461,.23834314E-3,.9594E-4,0
BRO-5,2022-002CF,2026-06-09T07:05:46.826304,15.46931673,.00043522,97.3000,233.8971,6.2813,353.8491,0,U,51061,999,24503,.52513479E-3,.26418E-3,0
