HAIYANG-2D              
1 48621U 21043A   26160.26776343 -.00000020  00000+0  55297-4 0  9998
2 48621  65.9999 324.4168 0011389 270.1415  89.8349 13.83375639255450
2021-050D               
1 48843U 21050D   26160.25583646  .00005112  00000+0  21867-3 0  9994
2 48843  97.3334 236.4720 0004013 301.7149  58.3697 15.23252769277753
TYVAK-0173              
1 48892U 21059P   26159.75712070  .00001917  00000+0  24621-3 0  9995
2 48892  96.0086 238.2092 0010761  64.4941 295.7389 14.81864455266992
MANDRAKE 2 ABLE         
1 48907U 21059AE  26160.25798711  .00020107  00000+0  30470-3 0  9996
2 48907  97.7042 349.4398 0005134  35.0683 325.0907 15.54668989275895
MANDRAKE 2 BAKER        
1 48908U 21059AF  26160.08428841  .00022787  00000+0  29239-3 0  9999
2 48908  97.7013 352.0688 0003610  37.4524 322.6983 15.59147610276035
PACE-1                  
1 48909U 21059AG  26160.10667320  .00077436  00000+0  44597-3 0  9995
2 48909  97.6783 357.3448 0000874 328.0891  32.0321 15.78483190276525
YAM-3                   
1 48915U 21059AN  26160.24799691  .00010982  00000+0  20915-3 0  9995
2 48915  97.6996 346.6860 0005715  37.4840 322.6807 15.48378015275769
FARADAY_PHOENIX         
1 48924U 21059AX  26160.09635817  .00112940  00000+0  70933-3 0  9999
2 48924  97.6836 357.2368 0002529 346.2462  13.8734 15.76410096276388
DEMO8 (TENZING)         
1 48951U 21059CA  26160.26104610  .00018955  00000+0  28700-3 0  9996
2 48951  97.7035 353.0790 0006937  25.0476 335.1112 15.54693056276078
NAPA-2                  
1 48963U 21059CN  26160.24301641  .00290503  35484-4  72516-3 0  9994
2 48963  97.6730 358.3052 0002669 251.6260 108.4724 15.95777302276541
FENGYUN 3E              
1 49008U 21062A   26160.30939807 -.00000163  00000+0 -56186-4 0  9997
2 49008  98.7498 163.8054 0002787  98.4957 261.6536 14.19903004255463
ISS (NAUKA)             
1 49044U 21066A   26160.19103139  .00006847  00000+0  12924-3 0  9993
2 49044  51.6332 339.6717 0006890 149.5560 210.5830 15.49678250570358
STARLINK-3100           
1 49144U 21082Q   26160.09583950  .00000189  00000+0  23619-4 0  9991
2 49144  70.0008  63.9807 0002841 272.6999  87.3835 14.98334786259677
CUTE                    
1 49263U 21088D   26160.20488512  .00130491  83754-5  42597-3 0  9998
2 49263  97.4195 258.7399 0008079 246.7432 113.2991 15.90636354261283
2021-091B               
1 49316U 21091B   26160.28442144  .00001456  00000+0  73693-4 0  9997
2 49316  97.4479 347.9800 0015019  70.0356 290.2494 15.18511011257786
SDGSAT 1                
1 49387U 21100A   26160.26475269  .00003323  00000+0  15776-3 0  9990
2 49387  97.2639 207.5085 0007083 332.0725  28.0130 15.19890529254718
TEIKYOSAT-4 (OORURI)    
1 49396U 21102B   26160.03336917  .00002103  00000+0  13499-3 0  9998
2 49396  97.3672 189.8336 0011066 327.9148  32.1407 15.09479159251491
Z-SAT                   
1 49399U 21102E   26160.28902097  .00004537  00000+0  22448-3 0  9993
2 49399  97.3334 195.8520 0014811 275.7893  84.1652 15.18208324252246
HIBARI                  
1 49400U 21102F   26160.10088498  .00008606  00000+0  28437-3 0  9992
2 49400  97.3243 206.0970 0010547 221.4141 138.6302 15.31566818252953
KOSEN-1                 
1 49402U 21102H   26160.08027342  .00006184  00000+0  23761-3 0  9996
2 49402  97.3193 202.3955 0012432 230.9756 129.0377 15.26721904252783
GLOBAL-14               
1 49469U 21106A   26159.77600881  .00028567  00000+0  49426-3 0  9997
2 49469  42.0063 341.0542 0017086 321.6139  38.3489 15.50184743256821
GAOFEN-3 02             
1 49495U 21109A   26160.27858091  .00000027  00000+0  21440-4 0  9992
2 49495  98.4093 168.4878 0003422  35.3966 324.7450 14.42216164239179
GLOBAL-12               
1 49772U 21115BA  26160.28834312  .00028179  00000+0  44848-3 0  9992
2 49772  53.1947  82.5065 0003464  52.9948 307.1380 15.53087245254676
GLOBAL-13               
1 49773U 21115BB  26160.10302467  .00018392  00000+0  38236-3 0  9995
2 49773  53.1969  93.0090 0004181  91.4086 268.7401 15.45724588254512
GLOBAL-17               
1 49949U 21120A   26160.10937778  .00023159  00000+0  37984-3 0  9991
2 49949  41.9940  97.4128 0014363 203.9461 156.0717 15.51823851253643
GLOBAL-16               
1 49950U 21120B   26160.11206314  .00021004  00000+0  37143-3 0  9993
2 49950  41.9946 100.9788 0012147 196.2575 163.7880 15.49786682253598
XW-3 (CAS-9)            
1 50466U 21131B   26160.27964240  .00000527  00000+0  17647-3 0  9999
2 50466  98.4971 252.7122 0005256 115.0760 245.0975 14.41350793233973
ION SCV-004             
1 50993U 22002K   26160.25785224  .00004599  00000+0  15901-3 0  9997
2 50993  97.2840 218.0657 0008023  34.4963 325.6797 15.30373243244087
ETV-A1                  
1 51060U 22002CE  26160.21949409  .00009594  00000+0  23834-3 0  9990
2 51060  97.2881 226.5485 0005392  31.7967 328.3604 15.40515858244618
BRO-5                   
1 51061U 22002CF  26160.29568086  .00026418  00000+0  52513-3 0  9997
2 51061  97.3000 233.8971 0004352   6.2813 353.8491 15.46931673245033
